[Satellite]
VERSION=1.1
NAME=SL-27 R/B
NICKNAME=SL-27 R/B
TLE1=1 40354U 14084B   19317.16010220  .00000782  00000-0  20538-4 0  9995
TLE2=2 40354  74.7365 117.5210 0036938  55.2846 305.1836 15.39893019275082
STATUS=0
